ONEWEB-0531             
1 54146U 22138AK  24253.93617128  .00000057  00000+0  10765-3 0  9992
2 54146  87.9227  42.7789 0002805  87.8025 272.3429 13.20773791 94135
ONEWEB-0535             
1 54147U 22138AL  24253.80258454  .00000224  00000+0  52589-3 0  9998
2 54147  87.9092  73.3331 0001981  85.2437 274.8921 13.19724484 91710
ONEWEB-0536             
1 54148U 22138AM  24253.92353562  .00000144  00000+0  32346-3 0  9998
2 54148  87.9226  42.8296 0002441  74.1739 285.9664 13.20768857 94124
ONEWEB-0527             
1 54642U 22166A   24253.85948911 -.00000237  00000+0 -60612-3 0  9990
2 54642  87.9355  12.4820 0001918 101.2080 258.9270 13.21825887 86280
ONEWEB-0528             
1 54643U 22166B   24253.86581802  .00000050  00000+0  90719-4 0  9997
2 54643  87.9358  12.4706 0001805 104.5824 255.5510 13.21823450 86299
ONEWEB-0539             
1 54644U 22166C   24253.90208346  .00000128  00000+0  27961-3 0  9996
2 54644  87.9361  12.4666 0001623  97.4354 262.6964 13.21823080 86296
ONEWEB-0540             
1 54645U 22166D   24253.89656425  .00000098  00000+0  20517-3 0  9996
2 54645  87.9355  12.4811 0001520  97.5884 262.5423 13.21827563 86285
ONEWEB-0542             
1 54646U 22166E   24253.83586091  .00000057  00000+0  10587-3 0  9993
2 54646  87.9363  12.4788 0001557  84.0171 276.1140 13.21825750 86281
